NORAD_CAT_ID,OBJECT_NAME,OBJECT_TYPE,EPOCH,MEAN_MOTION,ECCENTRICITY,INCLINATION,RA_OF_ASC_NODE,ARG_OF_PERICENTER,MEAN_ANOMALY,BSTAR,MEAN_MOTION_DOT,MEAN_MOTION_DDOT,TLE_LINE0,TLE_LINE1,TLE_LINE2,SEMIMAJOR_AXIS,PERIOD,APOGEE,PERIGEE,DECAYED
55956.0,STARLINK-5883,PAYLOAD,2024-05-13 11:27:47,14.98322293,0.0002962,69.9989,141.5814,272.8551,87.2269,-0.00016166,-2.021e-05,0.0,0 STARLINK-5883,1 55956U 23037AU  24134.47763062 -.00002021  00000-0 -16166-3 0  9994,2 55956  69.9989 141.5814 0002962 272.8551  87.2269 14.98322293 64833,6950.217,96.107,574.14,570.023,0.0
55956.0,STARLINK-5883,PAYLOAD,2024-05-13 17:52:19,14.98326895,0.0002991,69.9986,140.9079,272.2782,87.8035,-0.00015109,-1.895e-05,0.0,0 STARLINK-5883,1 55956U 23037AU  24134.74466800 -.00001895  00000-0 -15109-3 0  9998,2 55956  69.9986 140.9079 0002991 272.2782  87.8035 14.98326895 64871,6950.202,96.107,574.146,569.989,0.0
55956.0,STARLINK-5883,PAYLOAD,2024-05-14 05:05:16,14.98313166,0.0002719,69.9984,139.7293,264.677,95.4079,-7.2486e-05,-9.57e-06,0.0,0 STARLINK-5883,1 55956U 23037AU  24135.21199631 -.00000957  00000-0 -72486-4 0  9996,2 55956  69.9984 139.7293 0002719 264.6770  95.4079 14.98313166 65289,6950.245,96.108,574.0,570.22,0.0
55956.0,STARLINK-5883,PAYLOAD,2024-05-14 09:53:40,14.98320791,0.0003001,69.9987,139.2248,271.871,88.2105,1.3141e-05,6.4e-07,0.0,0 STARLINK-5883,1 55956U 23037AU  24135.41227065  .00000064  00000-0  13141-4 0  9991,2 55956  69.9987 139.2248 0003001 271.8710  88.2105 14.98320791 65312,6950.221,96.108,574.172,570.001,0.0
55956.0,STARLINK-5883,PAYLOAD,2024-05-14 17:54:20,14.98322849,0.0003036,69.9986,138.3821,271.4135,88.6676,5.0212e-05,5.06e-06,0.0,0 STARLINK-5883,1 55956U 23037AU  24135.74606989  .00000506  00000-0  50212-4 0  9994,2 55956  69.9986 138.3821 0003036 271.4135  88.6676 14.98322849 65024,6950.215,96.107,574.19,569.97,0.0
55956.0,STARLINK-5883,PAYLOAD,2024-05-15 09:55:40,14.98326833,0.0003122,69.9982,136.6993,271.4448,88.6353,0.00012851,1.441e-05,0.0,0 STARLINK-5883,1 55956U 23037AU  24136.41366756  .00001441  00000-0  12851-3 0  9999,2 55956  69.9982 136.6993 0003122 271.4448  88.6353 14.98326833 65461,6950.203,96.107,574.238,569.898,0.0
55956.0,STARLINK-5883,PAYLOAD,2024-05-15 22:44:45,14.98330508,0.0003284,69.998,135.3527,270.7692,89.309,0.00010052,1.107e-05,0.0,0 STARLINK-5883,1 55956U 23037AU  24136.94774576  .00001107  00000-0  10052-3 0  9990,2 55956  69.9980 135.3527 0003284 270.7692  89.3090 14.98330508 65202,6950.191,96.107,574.339,569.774,0.0
55956.0,STARLINK-5883,PAYLOAD,2024-05-16 09:57:41,14.98336262,0.0003086,69.9982,134.1743,271.3709,88.7097,0.00011814,1.317e-05,0.0,0 STARLINK-5883,1 55956U 23037AU  24137.41506123  .00001317  00000-0  11814-3 0  9994,2 55956  69.9982 134.1743 0003086 271.3709  88.7097 14.98336262 65615,6950.174,96.107,574.183,569.894,0.0
55956.0,STARLINK-5883,PAYLOAD,2024-05-17 09:59:41,14.98338502,0.0002976,69.9985,131.6499,270.8387,89.2431,4.9065e-05,4.93e-06,0.0,0 STARLINK-5883,1 55956U 23037AU  24138.41645724  .00000493  00000-0  49065-4 0  9990,2 55956  69.9985 131.6499 0002976 270.8387  89.2431 14.98338502 65764,6950.167,96.106,574.1,569.963,0.0
55956.0,STARLINK-5883,PAYLOAD,2024-05-17 16:24:14,14.98332265,0.000293,69.9987,130.9768,270.1229,89.9594,-3.7155e-05,-5.36e-06,0.0,0 STARLINK-5883,1 55956U 23037AU  24138.68350230 -.00000536  00000-0 -37155-4 0  9991,2 55956  69.9987 130.9768 0002930 270.1229  89.9594 14.98332265 65807,6950.186,96.107,574.087,570.014,0.0
55956.0,STARLINK-5883,PAYLOAD,2024-05-17 22:48:46,14.98332618,0.0002681,69.9992,130.3029,268.647,91.4382,-4.6128e-05,-6.43e-06,0.0,0 STARLINK-5883,1 55956U 23037AU  24138.95054199 -.00000643  00000-0 -46128-4 0  9995,2 55956  69.9992 130.3029 0002681 268.6470  91.4382 14.98332618 65502,6950.185,96.107,573.913,570.186,0.0
55956.0,STARLINK-5883,PAYLOAD,2024-05-18 08:25:35,14.98332001,0.0002843,69.9988,129.2936,270.2455,89.8378,-5.7491e-05,-7.79e-06,0.0,0 STARLINK-5883,1 55956U 23037AU  24139.35110180 -.00000779  00000-0 -57491-4 0  9998,2 55956  69.9988 129.2936 0002843 270.2455  89.8378 14.98332001 65561,6950.187,96.107,574.028,570.076,0.0
55956.0,STARLINK-5883,PAYLOAD,2024-05-18 16:26:15,14.98332025,0.0002839,69.9991,128.4518,269.642,90.4414,-6.5299e-05,-8.72e-06,0.0,0 STARLINK-5883,1 55956U 23037AU  24139.68490017 -.00000872  00000-0 -65299-4 0  9993,2 55956  69.9991 128.4518 0002839 269.6420  90.4414 14.98332025 65959,6950.187,96.107,574.025,570.078,0.0
55956.0,STARLINK-5883,PAYLOAD,2024-05-18 22:50:47,14.98331292,0.0002742,69.999,127.7785,266.5609,93.5236,-1.7516e-05,-3.02e-06,0.0,0 STARLINK-5883,1 55956U 23037AU  24139.95193952 -.00000302  00000-0 -17516-4 0  9998,2 55956  69.9990 127.7785 0002742 266.5609  93.5236 14.98331292 65652,6950.189,96.107,573.96,570.148,0.0
55956.0,STARLINK-5883,PAYLOAD,2024-05-19 08:27:36,14.98330514,0.0002684,69.9989,126.7685,261.9138,98.1717,-6.9095e-05,-9.17e-06,0.0,0 STARLINK-5883,1 55956U 23037AU  24140.35250094 -.00000917  00000-0 -69095-4 0  9996,2 55956  69.9989 126.7685 0002684 261.9138  98.1717 14.98330514 65717,6950.191,96.107,573.922,570.191,0.0
55956.0,STARLINK-5883,PAYLOAD,2024-05-20 05:17:20,14.98333043,0.0002953,69.9987,124.5798,268.9399,91.1422,7.6193e-05,8.16e-06,0.0,0 STARLINK-5883,1 55956U 23037AU  24141.22037394  .00000816  00000-0  76193-4 0  9992,2 55956  69.9987 124.5798 0002953 268.9399  91.1422 14.98333043 66189,6950.183,96.107,574.101,569.996,0.0
55956.0,STARLINK-5883,PAYLOAD,2024-05-20 08:29:36,14.98336108,0.0002929,69.9988,124.2432,268.758,91.3244,0.00010713,1.186e-05,0.0,0 STARLINK-5883,1 55956U 23037AU  24141.35389068  .00001186  00000-0  10713-3 0  9990,2 55956  69.9988 124.2432 0002929 268.7580  91.3244 14.98336108 65868,6950.174,96.107,574.075,570.003,0.0
55956.0,STARLINK-5883,PAYLOAD,2024-05-21 05:19:22,14.98321425,0.0003531,69.9983,122.0551,277.2319,82.8439,-8.6596e-05,-1.126e-05,0.0,0 STARLINK-5883,1 55956U 23037AU  24142.22178562 -.00001126  00000-0 -86596-4 0  9991,2 55956  69.9983 122.0551 0003531 277.2319  82.8439 14.98321425 66336,6950.219,96.108,574.539,569.63,0.0
55956.0,STARLINK-5883,PAYLOAD,2024-05-21 08:31:40,14.98296477,0.0002802,69.9992,121.7185,264.8981,95.1858,-0.00033304,-4.061e-05,0.0,0 STARLINK-5883,1 55956U 23037AU  24142.35532931 -.00004061  00000-0 -33304-3 0  9998,2 55956  69.9992 121.7185 0002802 264.8981  95.1858 14.98296477 66354,6950.297,96.109,574.109,570.214,0.0
55956.0,STARLINK-5883,PAYLOAD,2024-05-21 21:20:44,14.98312895,0.0003939,69.996,120.3672,270.4706,89.6002,-0.00030405,-3.718e-05,0.0,0 STARLINK-5883,1 55956U 23037AU  24142.88940464 -.00003718  00000-0 -30405-3 0  9997,2 55956  69.9960 120.3672 0003939 270.4706  89.6002 14.98312895 66436,6950.246,96.108,574.848,569.373,0.0
55956.0,STARLINK-5883,PAYLOAD,2024-05-21 22:56:52,14.98314045,0.0003027,70.0003,120.2074,264.4672,95.6142,-0.00020398,-2.525e-05,0.0,0 STARLINK-5883,1 55956U 23037AU  24142.95616087 -.00002525  00000-0 -20398-3 0  9991,2 55956  70.0003 120.2074 0003027 264.4672  95.6142 14.98314045 66100,6950.242,96.108,574.211,570.003,0.0
55956.0,STARLINK-5883,PAYLOAD,2024-05-22 05:21:24,14.9832028,0.0002621,70.0003,119.5314,247.1705,112.9178,-0.00012437,-1.576e-05,0.0,0 STARLINK-5883,1 55956U 23037AU  24143.22319622 -.00001576  00000-0 -12437-3 0  9997,2 55956  70.0003 119.5314 0002621 247.1705 112.9178 14.98320280 66483,6950.223,96.108,573.91,570.266,0.0
55956.0,STARLINK-5883,PAYLOAD,2024-05-22 08:33:40,14.98319058,0.0002317,70.0014,119.1957,245.6608,114.431,-8.5431e-05,-1.112e-05,0.0,0 STARLINK-5883,1 55956U 23037AU  24143.35671760 -.00001112  00000-0 -85431-4 0  9996,2 55956  70.0014 119.1957 0002317 245.6608 114.4310 14.98319058 66162,6950.227,96.108,573.702,570.481,0.0
55956.0,STARLINK-5883,PAYLOAD,2024-05-23 05:23:23,14.9833051,0.0003225,69.9992,117.0053,271.359,88.72,0.00020674,2.375e-05,0.0,0 STARLINK-5883,1 55956U 23037AU  24144.22458252  .00002375  00000-0  20674-3 0  9999,2 55956  69.9992 117.0053 0003225 271.3590  88.7200 14.98330510 66632,6950.191,96.107,574.298,569.815,0.0
55956.0,STARLINK-5883,PAYLOAD,2024-05-23 06:59:31,14.98331454,0.0003206,69.9992,116.837,271.0481,89.031,0.00021297,2.449e-05,0.0,0 STARLINK-5883,1 55956U 23037AU  24144.29134178  .00002449  00000-0  21297-3 0  9998,2 55956  69.9992 116.8370 0003206 271.0481  89.0310 14.98331454 66304,6950.188,96.107,574.282,569.825,0.0
55956.0,STARLINK-5883,PAYLOAD,2024-05-23 21:24:44,14.9833535,0.0003231,69.9989,115.3218,262.4104,97.6688,0.00011695,1.303e-05,0.0,0 STARLINK-5883,1 55956U 23037AU  24144.89218277  .00001303  00000-0  11695-3 0  9996,2 55956  69.9989 115.3218 0003231 262.4104  97.6688 14.98335350 66390,6950.176,96.107,574.287,569.796,0.0
55956.0,STARLINK-5883,PAYLOAD,2024-05-24 08:37:40,14.98339307,0.0003151,69.9991,114.1435,262.8787,97.2013,0.00014369,1.622e-05,0.0,0 STARLINK-5883,1 55956U 23037AU  24145.35949712  .00001622  00000-0  14369-3 0  9998,2 55956  69.9991 114.1435 0003151 262.8787  97.2013 14.98339307 66803,6950.164,96.106,574.219,569.839,0.0
55956.0,STARLINK-5883,PAYLOAD,2024-05-24 21:26:45,14.98336179,0.0002739,70.0003,112.798,255.3885,104.697,-6.5478e-05,-8.74e-06,0.0,0 STARLINK-5883,1 55956U 23037AU  24145.89358233 -.00000874  00000-0 -65478-4 0  9997,2 55956  70.0003 112.7980 0002739 255.3885 104.6970 14.98336179 66883,6950.174,96.107,573.942,570.135,0.0
55956.0,STARLINK-5883,PAYLOAD,2024-05-24 23:02:53,14.9833514,0.0002752,70.0002,112.6294,256.5759,103.5093,-7.6649e-05,-1.008e-05,0.0,0 STARLINK-5883,1 55956U 23037AU  24145.96034301 -.00001008  00000-0 -76649-4 0  9994,2 55956  70.0002 112.6294 0002752 256.5759 103.5093 14.98335140 66552,6950.177,96.107,573.955,570.129,0.0
55956.0,STARLINK-5883,PAYLOAD,2024-05-25 07:03:34,14.98332559,0.0002811,70.0,111.7878,256.9919,103.0927,-0.00010289,-1.32e-05,0.0,0 STARLINK-5883,1 55956U 23037AU  24146.29414419 -.00001320  00000-0 -10289-3 0  9997,2 55956  70.0000 111.7878 0002811 256.9919 103.0927 14.98332559 66604,6950.185,96.107,574.004,570.096,0.0
